STARLINK-5306           
1 55271U 23010C   26068.35849346  .00000787  00000+0  73714-4 0  9997
2 55271  70.0003  45.3995 0003022 270.3748  89.7065 14.98330801172737
COSMOS 2581             
1 62902U 25026A   26068.82116744  .00002320  00000+0  21137-3 0  9992
2 62902  81.9986 175.8565 0010574  32.7244 327.4629 14.94736104 59374
